SKYSAT-C1               
1 41601U 16040C   26199.34522904  .00004764  00000+0  13465-3 0  9991
2 41601  96.9548 229.3833 0000367 216.4632 143.6589 15.36778915562657
LAPAN-A3                
1 41603U 16040E   26199.64900035  .00001560  00000+0  50773-4 0  9996
2 41603  97.1507 194.7675 0008268 260.8485  99.1823 15.33289713559633
GAOFEN-3                
1 41727U 16049A   26199.65093705 -.00000100  00000+0 -17096-4 0  9992
2 41727  98.4016 206.9626 0001755  82.2641 277.8748 14.42218475523183
SKYSAT-C4               
1 41771U 16058B   26199.01607434  .00010029  00000+0  18369-3 0  9993
2 41771  96.9165 219.5148 0003507 113.6433 246.5188 15.49495091550241
SKYSAT-C5               
1 41772U 16058C   26199.53867647  .00003571  00000+0  11168-3 0  9999
2 41772  97.0452 238.7695 0002912 152.0060 208.1340 15.33744885548551
SKYSAT-C2               
1 41773U 16058D   26199.52948685  .00006438  00000+0  14931-3 0  9997
2 41773  97.0160 220.4574 0000968 334.4711  25.6490 15.42725687549884
SKYSAT-C3               
1 41774U 16058E   26199.51879048  .00013282  00000+0  20828-3 0  9990
2 41774  96.8991 229.1846 0002701 129.3372 230.8123 15.53801896550977
ALSAT-1B                
1 41785U 16059C   26199.63902532 -.00000015  00000+0  51041-5 0  9995
2 41785  97.7754 207.0463 0010531 120.0172 240.2082 14.72295078525208
PATHFINDER 1            
1 41787U 16059E   26199.42934241  .00000260  00000+0  53518-4 0  9997
2 41787  97.8178 197.2974 0029926 105.9279 254.5227 14.67695242524294
SCATSAT 1               
1 41790U 16059H   26199.18732671  .00000626  00000+0  88867-4 0  9998
2 41790  98.1176 263.2712 0055413 147.0561 213.4123 14.79591459106175
GOKTURK 1A              
1 41875U 16073A   26199.64293926  .00000083  00000+0  25316-4 0  9991
2 41875  98.1207  93.8186 0001418  82.3264 277.8099 14.62794345513420
RESOURCESAT-2A          
1 41877U 16074A   26199.60211953  .00000517  00000+0  25568-3 0  9990
2 41877  98.7516 272.8482 0002195  20.3309 339.7955 14.21611135498762
CARTOSAT-2D             
1 41948U 17008A   26199.64123333  .00002760  00000+0  13393-3 0  9990
2 41948  97.4083 258.3567 0006213 129.5074 230.6711 15.19300168522356
SENTINEL-2B             
1 42063U 17013A   26199.60611375  .00000434  00000+0  18226-3 0  9995
2 42063  98.5682 273.9358 0001221  92.5391 267.5932 14.30817189489138
CARTOSAT-2E             
1 42767U 17036C   26199.59320383  .00001823  00000+0  89675-4 0  9995
2 42767  97.4253 258.8749 0003562 175.5437 184.5831 15.19268367502914
FORMOSAT-5              
1 42920U 17049A   26199.63796462  .00000035  00000+0  19984-4 0  9990
2 42920  98.2244 274.2476 0011090 353.1550   6.9492 14.50908375471232
SENTINEL-5P             
1 42969U 17064A   26199.28615270  .00000005  00000+0  23527-4 0  9993
2 42969  98.7929 141.1975 0001163  94.0399 266.0910 14.19523527453970
SKYSAT-C11              
1 42987U 17068A   26198.93692861  .00017166  00000+0  21849-3 0  9999
2 42987  97.4388 349.1483 0001289 155.4215 204.7103 15.59422768488035
SKYSAT-C10              
1 42988U 17068B   26199.65001822  .00005565  00000+0  16550-3 0  9994
2 42988  97.4546 336.8218 0001513 111.2692 248.8713 15.35156996487182
SKYSAT-C9               
1 42989U 17068C   26199.32400454  .00006861  00000+0  16150-3 0  9999
2 42989  97.4467 337.7294 0008365  34.6391 325.5399 15.42259694487556
SKYSAT-C8               
1 42990U 17068D   26199.31265628  .00005540  00000+0  15279-3 0  9996
2 42990  97.4565 336.4004 0001248 104.2082 255.9302 15.37527335487099
SKYSAT-C7               
1 42991U 17068E   26199.63265682  .00005396  00000+0  14906-3 0  9997
2 42991  97.4574 337.7172 0005397   9.6280 350.5067 15.37480497487207
SKYSAT-C6               
1 42992U 17068F   26199.32373988  .00004767  00000+0  14644-3 0  9993
2 42992  97.4612 337.2430 0005031  81.6660 278.5153 15.34200697487091
CARTOSAT-2F             
1 43111U 18004A   26199.62591841  .00003030  00000+0  14728-3 0  9996
2 43111  97.4766 258.9509 0002502 127.5417 232.6046 15.19191152472107
GAOFEN-1 02             
1 43259U 18031A   26199.60861146  .00000862  00000+0  13120-3 0  9990
2 43259  98.0508 262.0452 0001467 264.8535  95.2507 14.76476141447337
GAOFEN-1 03             
1 43260U 18031B   26199.65450176  .00000294  00000+0  49651-4 0  9992
2 43260  98.0501 261.9457 0002133   5.2620 354.8612 14.76465012447334
GAOFEN-1 04             
1 43262U 18031D   26199.63022003  .00000725  00000+0  11163-3 0  9991
2 43262  98.0508 262.1165 0001030  50.4880 309.6420 14.76442385447329
SENTINEL-3B             
1 43437U 18039A   26199.46762235  .00000043  00000+0  35884-4 0  9992
2 43437  98.6234 266.5486 0001222 118.7728 241.3575 14.26736912428588
GAOFEN-5 01             
1 43461U 18043A   26199.36834578  .00000133  00000+0  37400-4 0  9999
2 43461  98.4592 171.6136 0001909  25.7334 334.3960 14.60624553436248
GAOFEN-6                
1 43484U 18048A   26199.65293802  .00000185  00000+0  34181-4 0  9990
2 43484  98.0951 262.3630 0012073  71.7978 288.4544 14.76385518438032
