OBJECT_NAME,OBJECT_ID,EPOCH,MEAN_MOTION,ECCENTRICITY,INCLINATION,RA_OF_ASC_NODE,ARG_OF_PERICENTER,MEAN_ANOMALY,EPHEMERIS_TYPE,CLASSIFICATION_TYPE,NORAD_CAT_ID,ELEMENT_SET_NO,REV_AT_EPOCH,BSTAR,MEAN_MOTION_DOT,MEAN_MOTION_DDOT
SKYSAT-C1,2016-040C,2026-07-18T08:17:07.789056,15.36778915,.00003678,96.9548,229.3833,216.4632,143.6589,0,U,41601,999,56265,.13464892E-3,.4764E-4,0
LAPAN-A3,2016-040E,2026-07-18T15:34:33.630240,15.33289713,.00082682,97.1507,194.7675,260.8485,99.1823,0,U,41603,999,55963,.50772874E-4,.156E-4,0
GAOFEN-3,2016-049A,2026-07-18T15:37:20.961120,14.42218475,.00017558,98.4016,206.9626,82.2641,277.8748,0,U,41727,999,52318,-.17095865E-4,-.1E-5,0
SKYSAT-C4,2016-058B,2026-07-18T00:23:08.822976,15.49495091,.00035075,96.9165,219.5148,113.6433,246.5188,0,U,41771,999,55024,.18369334E-3,.10029E-3,0
SKYSAT-C5,2016-058C,2026-07-18T12:55:41.647008,15.33744885,.00029122,97.0452,238.7695,152.0060,208.1340,0,U,41772,999,54855,.11168221E-3,.3571E-4,0
SKYSAT-C2,2016-058D,2026-07-18T12:42:27.663840,15.42725687,.00009683,97.0160,220.4574,334.4711,25.6490,0,U,41773,999,54988,.14930693E-3,.6438E-4,0
SKYSAT-C3,2016-058E,2026-07-18T12:27:03.497472,15.53801896,.00027014,96.8991,229.1846,129.3372,230.8123,0,U,41774,999,55097,.2082785E-3,.13282E-3,0
ALSAT-1B,2016-059C,2026-07-18T15:20:11.787648,14.72295078,.00105316,97.7754,207.0463,120.0172,240.2082,0,U,41785,999,52520,.5104069E-5,-.15E-6,0
PATHFINDER 1,2016-059E,2026-07-18T10:18:15.184224,14.67695242,.00299264,97.8178,197.2974,105.9279,254.5227,0,U,41787,999,52429,.53518423E-4,.26E-5,0
SCATSAT 1,2016-059H,2026-07-18T04:29:45.027744,14.79591459,.00554136,98.1176,263.2712,147.0561,213.4123,0,U,41790,999,10617,.88867118E-4,.626E-5,0
GOKTURK 1A,2016-073A,2026-07-18T15:25:49.952064,14.62794345,.00014184,98.1207,93.8186,82.3264,277.8099,0,U,41875,999,51342,.25315927E-4,.83E-6,0
RESOURCESAT-2A,2016-074A,2026-07-18T14:27:03.127392,14.21611135,.00021956,98.7516,272.8482,20.3309,339.7955,0,U,41877,999,49876,.2556802E-3,.517E-5,0
CARTOSAT-2D,2017-008A,2026-07-18T15:23:22.559712,15.19300168,.0006213,97.4083,258.3567,129.5074,230.6711,0,U,41948,999,52235,.13393018E-3,.276E-4,0
SENTINEL-2B,2017-013A,2026-07-18T14:32:48.228000,14.30817189,.00012214,98.5682,273.9358,92.5391,267.5932,0,U,42063,999,48913,.18226133E-3,.434E-5,0
CARTOSAT-2E,2017-036C,2026-07-18T14:14:12.810912,15.19268367,.00035627,97.4253,258.8749,175.5437,184.5831,0,U,42767,999,50291,.89674717E-4,.1823E-4,0
FORMOSAT-5,2017-049A,2026-07-18T15:18:40.143168,14.50908375,.00110903,98.2244,274.2476,353.1550,6.9492,0,U,42920,999,47123,.19983596E-4,.35E-6,0
SENTINEL-5P,2017-064A,2026-07-18T06:52:03.593280,14.19523527,.00011638,98.7929,141.1975,94.0399,266.0910,0,U,42969,999,45397,.23526894E-4,.5E-7,0
SKYSAT-C11,2017-068A,2026-07-17T22:29:10.631904,15.59422768,.00012891,97.4388,349.1483,155.4215,204.7103,0,U,42987,999,48803,.21849398E-3,.17166E-3,0
SKYSAT-C10,2017-068B,2026-07-18T15:36:01.574208,15.35156996,.00015138,97.4546,336.8218,111.2692,248.8713,0,U,42988,999,48718,.16550353E-3,.5565E-4,0
SKYSAT-C9,2017-068C,2026-07-18T07:46:33.992256,15.42259694,.00083654,97.4467,337.7294,34.6391,325.5399,0,U,42989,999,48755,.16149619E-3,.6861E-4,0
SKYSAT-C8,2017-068D,2026-07-18T07:30:13.502592,15.37527335,.00012487,97.4565,336.4004,104.2082,255.9302,0,U,42990,999,48709,.15278732E-3,.554E-4,0
SKYSAT-C7,2017-068E,2026-07-18T15:11:01.549248,15.37480497,.00053976,97.4574,337.7172,9.6280,350.5067,0,U,42991,999,48720,.14905528E-3,.5396E-4,0
SKYSAT-C6,2017-068F,2026-07-18T07:46:11.125632,15.34200697,.00050318,97.4612,337.2430,81.6660,278.5153,0,U,42992,999,48709,.14643506E-3,.4767E-4,0
CARTOSAT-2F,2018-004A,2026-07-18T15:01:19.350624,15.19191152,.00025028,97.4766,258.9509,127.5417,232.6046,0,U,43111,999,47210,.14727755E-3,.303E-4,0
GAOFEN-1 02,2018-031A,2026-07-18T14:36:24.030144,14.76476141,.00014674,98.0508,262.0452,264.8535,95.2507,0,U,43259,999,44733,.13120488E-3,.862E-5,0
GAOFEN-1 03,2018-031B,2026-07-18T15:42:28.952064,14.76465012,.00021332,98.0501,261.9457,5.2620,354.8612,0,U,43260,999,44733,.49651437E-4,.294E-5,0
GAOFEN-1 04,2018-031D,2026-07-18T15:07:31.010592,14.76442385,.00010302,98.0508,262.1165,50.4880,309.6420,0,U,43262,999,44732,.11163193E-3,.725E-5,0
SENTINEL-3B,2018-039A,2026-07-18T11:13:22.571040,14.26736912,.00012225,98.6234,266.5486,118.7728,241.3575,0,U,43437,999,42858,.35884118E-4,.43E-6,0
GAOFEN-5 01,2018-043A,2026-07-18T08:50:25.075392,14.60624553,.0001909,98.4592,171.6136,25.7334,334.3960,0,U,43461,999,43624,.37400055E-4,.133E-5,0
GAOFEN-6,2018-048A,2026-07-18T15:40:13.844928,14.76385518,.00120734,98.0951,262.3630,71.7978,288.4544,0,U,43484,999,43803,.34181132E-4,.185E-5,0
